[{"OBJECT_NAME":"TIANMU-1 10","OBJECT_ID":"2023-101D","EPOCH":"2026-03-09T23:06:46.939392","MEAN_MOTION":15.2921896,"ECCENTRICITY":0.00069292,"INCLINATION":97.2749,"RA_OF_ASC_NODE":122.1027,"ARG_OF_PERICENTER":133.6162,"MEAN_ANOMALY":226.5654,"EPHEMERIS_TYPE":0,"CLASSIFICATION_TYPE":"U","NORAD_CAT_ID":57402,"ELEMENT_SET_NO":999,"REV_AT_EPOCH":14647,"BSTAR":0.00032238884,"MEAN_MOTION_DOT":9.075e-5,"MEAN_MOTION_DDOT":0},{"OBJECT_NAME":"STARLINK-35719","OBJECT_ID":"2025-303W","EPOCH":"2026-03-09T09:32:44.047392","MEAN_MOTION":15.27598093,"ECCENTRICITY":0.00016361,"INCLINATION":43.0006,"RA_OF_ASC_NODE":312.0919,"ARG_OF_PERICENTER":257.2789,"MEAN_ANOMALY":102.788,"EPHEMERIS_TYPE":0,"CLASSIFICATION_TYPE":"U","NORAD_CAT_ID":67183,"ELEMENT_SET_NO":999,"REV_AT_EPOCH":1269,"BSTAR":0.00093998371,"MEAN_MOTION_DOT":0.00025709,"MEAN_MOTION_DDOT":0}]
